[{"OBJECT_NAME":"STARLINK-2436","OBJECT_ID":"2021-027K","EPOCH":"2026-03-09T13:24:34.974432","MEAN_MOTION":15.3021464,"ECCENTRICITY":0.0001556,"INCLINATION":53.1602,"RA_OF_ASC_NODE":155.5561,"ARG_OF_PERICENTER":86.962,"MEAN_ANOMALY":273.1558,"EPHEMERIS_TYPE":0,"CLASSIFICATION_TYPE":"U","NORAD_CAT_ID":48101,"ELEMENT_SET_NO":999,"REV_AT_EPOCH":27264,"BSTAR":0.0003904,"MEAN_MOTION_DOT":0.00011226,"MEAN_MOTION_DDOT":0},{"OBJECT_NAME":"TIANMU-1 08","OBJECT_ID":"2023-101B","EPOCH":"2026-03-07T00:03:25.475616","MEAN_MOTION":15.29204229,"ECCENTRICITY":0.00063808,"INCLINATION":97.2717,"RA_OF_ASC_NODE":118.7901,"ARG_OF_PERICENTER":134.2174,"MEAN_ANOMALY":225.9592,"EPHEMERIS_TYPE":0,"CLASSIFICATION_TYPE":"U","NORAD_CAT_ID":57400,"ELEMENT_SET_NO":999,"REV_AT_EPOCH":14602,"BSTAR":1.4774513e-5,"MEAN_MOTION_DOT":3.46e-6,"MEAN_MOTION_DDOT":0}]
